[{"OBJECT_NAME":"STARLINK-32003","OBJECT_ID":"2024-117G","EPOCH":"2026-03-09T04:51:19.844928","MEAN_MOTION":15.3019383,"ECCENTRICITY":0.00010733,"INCLINATION":53.1616,"RA_OF_ASC_NODE":39.2575,"ARG_OF_PERICENTER":72.3058,"MEAN_ANOMALY":287.806,"EPHEMERIS_TYPE":0,"CLASSIFICATION_TYPE":"U","NORAD_CAT_ID":60097,"ELEMENT_SET_NO":999,"REV_AT_EPOCH":9681,"BSTAR":1.6603293e-5,"MEAN_MOTION_DOT":1.33e-6,"MEAN_MOTION_DDOT":0},{"OBJECT_NAME":"FENGYUN 1C DEB","OBJECT_ID":"1999-025AQG","EPOCH":"2026-03-09T10:43:06.043872","MEAN_MOTION":15.25746961,"ECCENTRICITY":0.00178142,"INCLINATION":98.9311,"RA_OF_ASC_NODE":250.2123,"ARG_OF_PERICENTER":328.3876,"MEAN_ANOMALY":31.6286,"EPHEMERIS_TYPE":0,"CLASSIFICATION_TYPE":"U","NORAD_CAT_ID":30674,"ELEMENT_SET_NO":999,"REV_AT_EPOCH":98658,"BSTAR":0.015201752,"MEAN_MOTION_DOT":0.00411052,"MEAN_MOTION_DDOT":0}]
